LUCKY-7                 
1 44406U 19038W   22253.86952474  .00006152  00000+0  31913-3 0  9991
2 44406  97.6465 223.4396 0021912 190.9478 169.1281 15.16312710175906
D-STAR ONE (EXOCONNECT) 
1 44410U 19038AA  22253.86350417  .00015607  00000+0  68925-3 0  9993
2 44410  97.6372 225.2560 0017574 184.3726 175.7359 15.21690154176078
NARSSCUBE-2             
1 44415U 19022E   22253.78583277  .00008413  00000+0  24702-3 0  9996
2 44415  51.6401  64.2171 0010388   7.0039 353.1087 15.35945337173224
DUCHIFAT-3              
1 44854U 19089C   22253.59923634  .00003934  00000+0  30391-3 0  9994
2 44854  36.9676 315.3917 0007760 199.5871 312.8875 15.01536714150736
OPS-SAT                 
1 44878U 19092F   22253.74013981  .00008884  00000+0  39982-3 0  9990
2 44878  97.4810  77.0377 0013081  47.3144 312.9191 15.21249691151158
FLORIPASAT-1            
1 44885U 19093G   22253.81646275  .00001848  00000+0  23152-3 0  9990
2 44885  97.8928 333.3051 0013082 274.5371  85.4368 14.83384993147508
HUSKYSAT-1 (HO-107)     
1 45119U 19071J   22253.56211787  .00029056  00000+0  55334-3 0  9993
2 45119  51.6392   0.1882 0008082 117.2863 242.8949 15.47928461146537
BY70-2                  
1 45857U 20042B   22253.80197876  .00006797  00000+0  89012-3 0  9998
2 45857  97.9516 329.8637 0010388 191.9696 168.1269 14.80659066118083
SALSAT                  
1 46495U 20068K   22253.81753812  .00001803  00000+0  13192-3 0  9993
2 46495  97.7334 195.1790 0016182 355.2265   4.8804 15.04810524107025
NETSAT-4                
1 46504U 20068U   22253.82361192  .00003188  00000+0  23603-3 0  9997
2 46504  97.7279 193.4868 0013845  43.4088 316.8225 15.03805801106879
NETSAT-3                
1 46505U 20068V   22253.77497429  .00004170  00000+0  30777-3 0  9997
2 46505  97.7262 193.3475 0012072  50.5001 309.7293 15.03761401106873
NETSAT-1                
1 46506U 20068W   22253.79458956  .00003229  00000+0  23993-3 0  9998
2 46506  97.7263 193.2871 0010555  57.6800 302.5446 15.03683031106876
NETSAT-2                
1 46507U 20068X   22253.80518220  .00002729  00000+0  20357-3 0  9997
2 46507  97.7279 193.2922 0010603  64.7194 295.5129 15.03669627106829
BY70-3                  
1 46839U 20079N   22253.75856866  .00027250  00000+0  57344-3 0  9994
2 46839  97.1919 324.8929 0005358  38.9973  79.6277 15.45250231103409
UVSQ-SAT                
1 47438U 21006AB  22253.68502602  .00005408  00000+0  28058-3 0  9990
2 47438  97.4299 310.9564 0010983 347.3295  12.7661 15.16500131 90195
SOMP2B                  
1 47445U 21006AJ  22253.70273359  .00005436  00000+0  28508-3 0  9996
2 47445  97.4271 310.5652 0010818 351.8188   8.2867 15.16124735 90184
DIY-1 (ARDUIQUBE)       
1 47963U 21022AH  22253.70535090  .00015627  00000+0  82174-3 0  9994
2 47963  97.5225 154.1669 0015310 189.8570 170.2364 15.15651854 79854
